[{"OBJECT_NAME":"STARLINK-33860","OBJECT_ID":"2025-102M","EPOCH":"2026-03-09T13:22:46.780032","MEAN_MOTION":14.98331259,"ECCENTRICITY":0.0003148,"INCLINATION":70.0011,"RA_OF_ASC_NODE":114.7386,"ARG_OF_PERICENTER":270.8769,"MEAN_ANOMALY":89.2029,"EPHEMERIS_TYPE":0,"CLASSIFICATION_TYPE":"U","NORAD_CAT_ID":64033,"ELEMENT_SET_NO":999,"REV_AT_EPOCH":4594,"BSTAR":6.4188e-5,"MEAN_MOTION_DOT":6.73e-6,"MEAN_MOTION_DDOT":0},{"OBJECT_NAME":"CZ-6A DEB","OBJECT_ID":"2024-140RH","EPOCH":"2026-03-09T12:32:13.567200","MEAN_MOTION":15.23024459,"ECCENTRICITY":0.01073082,"INCLINATION":88.6757,"RA_OF_ASC_NODE":253.1302,"ARG_OF_PERICENTER":74.0491,"MEAN_ANOMALY":287.2547,"EPHEMERIS_TYPE":0,"CLASSIFICATION_TYPE":"U","NORAD_CAT_ID":61163,"ELEMENT_SET_NO":999,"REV_AT_EPOCH":8457,"BSTAR":0.0019108924,"MEAN_MOTION_DOT":0.00053105,"MEAN_MOTION_DDOT":0}]
